YOTSUBA-KULOVER         
1 65941U 98067XN  26050.26327401  .00136021  00000+0  93058-3 0  9993
2 65941  51.6247 152.3450 0005301 330.8697  29.2005 15.73822508 20592
BOTAN                   
1 65942U 98067XP  26050.28134835  .00518948  11839-3  14065-2 0  9991
2 65942  51.6150 147.1333 0009504 349.8754  10.2060 15.93581040 20665
E-KAGAKU-1              
1 65943U 98067XQ  26050.26495316  .00130486  00000+0  89980-3 0  9994
2 65943  51.6275 152.3701 0005345 342.4851  17.5963 15.73658104 20595
HRC MONOBLOCK CAMERA    
1 66052U 98067XR  26049.56003835  .00042458  00000+0  51550-3 0  9991
2 66052  51.6293 161.9215 0002376  19.2804 340.8278 15.60157442 19405
HTV-X1                  
1 66174U 25241A   26049.79608032  .00009878  00000+0  18896-3 0  9990
2 66174  51.6323 165.7431 0010935 112.1599 248.0551 15.48691264   516
SZ-21 MODULE            
1 66515U 25246C   26050.09062311  .00030016  00000+0  27526-3 0  9991
2 66515  41.4761 317.7232 0001783 298.3543  61.7118 15.67079513 15156
SHENZHOU-22             
1 66645U 25272A   26050.21688436  .00024817  00000+0  30290-3 0  9994
2 66645  41.4677 320.4938 0004452 142.8604 217.2543 15.59868728267645
SOYUZ-MS 28             
1 66664U 25275A   26049.79608032  .00009878  00000+0  18896-3 0  9991
2 66664  51.6323 165.7431 0010935 112.1599 248.0551 15.48691264  1285
DUPLEX                  
1 66906U 98067XS  26050.27681801  .00030912  00000+0  45875-3 0  9999
2 66906  51.6295 161.4570 0001577  72.7851 287.3313 15.54931591 12262
ISS OBJECT XT           
1 66907U 98067XT  26049.56988410  .00107239  00000+0  11094-2 0  9998
2 66907  51.6274 162.7319 0002932 333.2736  26.8107 15.63890097 12181
ISS OBJECT XU           
1 66908U 98067XU  26049.56906836  .00107743  00000+0  11124-2 0  9995
2 66908  51.6269 162.7238 0002823 338.4343  21.6532 15.63937528 12182
SILVERSAT               
1 66909U 98067XV  26050.29973649  .00127892  00000+0  12175-2 0  9998
2 66909  51.6279 158.6053 0003881 336.4094  23.6723 15.65896270 12307
